{
"type": "FeatureCollection",
"name": "buildings",
"crs": { "type": "name", "properties": { "name": "urn:ogc:def:crs:OGC:1.3:CRS84" } },
"features": [
{ "type": "Feature", "properties": { "height_m": 14.0 }, "geometry": { "type": "Polygon", "coordinates": [ [ [ 79.5927208, 17.9861003 ], [ 79.5929075, 17.9861804 ], [ 79.5929436, 17.9861044 ], [ 79.5927569, 17.9860243 ], [ 79.5927208, 17.9861003 ] ] ] } },
{ "type": "Feature", "properties": { "height_m": 15.0 }, "geometry": { "type": "Polygon", "coordinates": [ [ [ 79.5922118, 17.9861941 ], [ 79.5921846, 17.9863387 ], [ 79.5922369, 17.9863476 ], [ 79.5922288, 17.9863907 ], [ 79.5922707, 17.9863979 ], [ 79.5922788, 17.9863547 ], [ 79.5923121, 17.9863604 ], [ 79.5923392, 17.9862158 ], [ 79.5922118, 17.9861941 ] ] ] } }
]
}
