{
"type": "FeatureCollection",
"name": "nfz",
"crs": { "type": "name", "properties": { "name": "urn:ogc:def:crs:OGC:1.3:CRS84" } },
"features": [
{ "type": "Feature", "properties": { "name": "Apollo Hospital Jubilee Hills", "nfz_type": "hospital", "severity": "hard" }, "geometry": { "type": "Polygon", "coordinates": [ [ [ 78.4145, 17.4258 ], [ 78.414485554180018, 17.425505948579008 ], [ 78.414442355841217, 17.42521472903395 ], [ 78.414370821007196, 17.424929145968235 ], [ 78.41427163859754, 17.424651949702902 ], [ 78.414145763793044, 17.42438580978952 ], [ 78.413994408836913, 17.42413328930094 ], [ 78.413819031360092, 17.423896820147508 ], [ 78.413621320343566, 17.42367867965644 ], [ 78.413403179852494, 17.423480968639911 ], [ 78.413166710699059, 17.423305591163093 ], [ 78.412914190210486, 17.423154236206955 ], [ 78.412648050297094, 17.423028361402466 ], [ 78.412370854031764, 17.422929178992803 ], [ 78.412085270966045, 17.422857644158789 ], [ 78.411794051420998, 17.422814445819981 ], [ 78.4115, 17.4228 ], [ 78.41120594857901, 17.422814445819981 ], [ 78.410914729033962, 17.422857644158789 ], [ 78.410629145968244, 17.422929178992803 ], [ 78.410351949702914, 17.423028361402466 ], [ 78.410085809789521, 17.423154236206955 ], [ 78.409833289300948, 17.423305591163093 ], [ 78.409596820147513, 17.423480968639911 ], [ 78.409378679656442, 17.42367867965644 ], [ 78.409180968639916, 17.423896820147508 ], [ 78.409005591163094, 17.42413328930094 ], [ 78.408854236206963, 17.42438580978952 ], [ 78.408728361402467, 17.424651949702902 ], [ 78.408629178992811, 17.424929145968235 ], [ 78.40855764415879, 17.42521472903395 ], [ 78.408514445819989, 17.425505948579008 ], [ 78.4085, 17.4258 ], [ 78.408514445819989, 17.426094051420989 ], [ 78.40855764415879, 17.426385270966048 ], [ 78.408629178992811, 17.426670854031762 ], [ 78.408728361402467, 17.426948050297096 ], [ 78.408854236206963, 17.427214190210478 ], [ 78.409005591163094, 17.427466710699058 ], [ 78.409180968639916, 17.42770317985249 ], [ 78.409378679656442, 17.427921320343557 ], [ 78.409596820147513, 17.428119031360087 ], [ 78.409833289300948, 17.428294408836905 ], [ 78.410085809789521, 17.428445763793043 ], [ 78.410351949702914, 17.428571638597532 ], [ 78.410629145968244, 17.428670821007195 ], [ 78.410914729033962, 17.428742355841209 ], [ 78.41120594857901, 17.428785554180017 ], [ 78.4115, 17.4288 ], [ 78.411794051420998, 17.428785554180017 ], [ 78.412085270966045, 17.428742355841209 ], [ 78.412370854031764, 17.428670821007195 ], [ 78.412648050297094, 17.428571638597532 ], [ 78.412914190210486, 17.428445763793043 ], [ 78.413166710699059, 17.428294408836905 ], [ 78.413403179852494, 17.428119031360087 ], [ 78.413621320343566, 17.427921320343557 ], [ 78.413819031360092, 17.42770317985249 ], [ 78.413994408836913, 17.427466710699058 ], [ 78.414145763793044, 17.427214190210478 ], [ 78.41427163859754, 17.426948050297096 ], [ 78.414370821007196, 17.426670854031762 ], [ 78.414442355841217, 17.426385270966048 ], [ 78.414485554180018, 17.426094051420989 ], [ 78.4145, 17.4258 ] ] ] } },
{ "type": "Feature", "properties": { "name": "KIMS Hospital Secunderabad", "nfz_type": "hospital", "severity": "hard" }, "geometry": { "type": "Polygon", "coordinates": [ [ [ 78.49, 17.438 ], [ 78.489990369453338, 17.43780396571934 ], [ 78.489961570560808, 17.437609819355966 ], [ 78.489913880671466, 17.437419430645491 ], [ 78.489847759065029, 17.437234633135269 ], [ 78.489763842528703, 17.437057206526347 ], [ 78.489662939224601, 17.436888859533958 ], [ 78.489546020906729, 17.436731213431671 ], [ 78.48941421356237, 17.436585786437625 ], [ 78.489268786568331, 17.436453979093272 ], [ 78.489111140466036, 17.436337060775394 ], [ 78.488942793473655, 17.436236157471303 ], [ 78.488765366864726, 17.436152240934977 ], [ 78.488580569354511, 17.436086119328536 ], [ 78.488390180644032, 17.436038429439193 ], [ 78.488196034280662, 17.436009630546653 ], [ 78.488, 17.436 ], [ 78.487803965719337, 17.436009630546653 ], [ 78.487609819355967, 17.436038429439193 ], [ 78.487419430645488, 17.436086119328536 ], [ 78.487234633135273, 17.436152240934977 ], [ 78.487057206526345, 17.436236157471303 ], [ 78.486888859533963, 17.436337060775394 ], [ 78.486731213431668, 17.436453979093272 ], [ 78.48658578643763, 17.436585786437625 ], [ 78.48645397909327, 17.436731213431671 ], [ 78.486337060775398, 17.436888859533958 ], [ 78.486236157471296, 17.437057206526347 ], [ 78.48615224093497, 17.437234633135269 ], [ 78.486086119328533, 17.437419430645491 ], [ 78.486038429439191, 17.437609819355966 ], [ 78.486009630546661, 17.43780396571934 ], [ 78.486, 17.438 ], [ 78.486009630546661, 17.438196034280658 ], [ 78.486038429439191, 17.438390180644031 ], [ 78.486086119328533, 17.438580569354507 ], [ 78.48615224093497, 17.438765366864729 ], [ 78.486236157471296, 17.43894279347365 ], [ 78.486337060775398, 17.439111140466039 ], [ 78.48645397909327, 17.439268786568327 ], [ 78.48658578643763, 17.439414213562372 ], [ 78.486731213431668, 17.439546020906725 ], [ 78.486888859533963, 17.439662939224604 ], [ 78.487057206526345, 17.439763842528695 ], [ 78.487234633135273, 17.439847759065021 ], [ 78.487419430645488, 17.439913880671462 ], [ 78.487609819355967, 17.439961570560804 ], [ 78.487803965719337, 17.439990369453344 ], [ 78.488, 17.44 ], [ 78.488196034280662, 17.439990369453344 ], [ 78.488390180644032, 17.439961570560804 ], [ 78.488580569354511, 17.439913880671462 ], [ 78.488765366864726, 17.439847759065021 ], [ 78.488942793473655, 17.439763842528695 ], [ 78.489111140466036, 17.439662939224604 ], [ 78.489268786568331, 17.439546020906725 ], [ 78.48941421356237, 17.439414213562372 ], [ 78.489546020906729, 17.439268786568327 ], [ 78.489662939224601, 17.439111140466039 ], [ 78.489763842528703, 17.43894279347365 ], [ 78.489847759065029, 17.438765366864729 ], [ 78.489913880671466, 17.438580569354507 ], [ 78.489961570560808, 17.438390180644031 ], [ 78.489990369453338, 17.438196034280658 ], [ 78.49, 17.438 ] ] ] } },
{ "type": "Feature", "properties": { "name": "Care Hospital Banjara Hills", "nfz_type": "hospital", "severity": "hard" }, "geometry": { "type": "Polygon", "coordinates": [ [ [ 78.45, 17.412 ], [ 78.449990369453332, 17.41180396571934 ], [ 78.449961570560802, 17.411609819355967 ], [ 78.44991388067146, 17.411419430645491 ], [ 78.449847759065023, 17.411234633135269 ], [ 78.449763842528697, 17.411057206526348 ], [ 78.449662939224595, 17.410888859533959 ], [ 78.449546020906723, 17.410731213431671 ], [ 78.449414213562363, 17.410585786437625 ], [ 78.449268786568325, 17.410453979093273 ], [ 78.44911114046603, 17.410337060775394 ], [ 78.448942793473648, 17.410236157471303 ], [ 78.44876536686472, 17.410152240934977 ], [ 78.448580569354505, 17.410086119328536 ], [ 78.448390180644026, 17.410038429439194 ], [ 78.448196034280656, 17.410009630546654 ], [ 78.448, 17.41 ], [ 78.447803965719331, 17.410009630546654 ], [ 78.447609819355961, 17.410038429439194 ], [ 78.447419430645482, 17.410086119328536 ], [ 78.447234633135267, 17.410152240934977 ], [ 78.447057206526338, 17.410236157471303 ], [ 78.446888859533956, 17.410337060775394 ], [ 78.446731213431661, 17.410453979093273 ], [ 78.446585786437623, 17.410585786437625 ], [ 78.446453979093263, 17.410731213431671 ], [ 78.446337060775392, 17.410888859533959 ], [ 78.44623615747129, 17.411057206526348 ], [ 78.446152240934964, 17.411234633135269 ], [ 78.446086119328527, 17.411419430645491 ], [ 78.446038429439184, 17.411609819355967 ], [ 78.446009630546655, 17.41180396571934 ], [ 78.446, 17.412 ], [ 78.446009630546655, 17.412196034280658 ], [ 78.446038429439184, 17.412390180644032 ], [ 78.446086119328527, 17.412580569354507 ], [ 78.446152240934964, 17.412765366864729 ], [ 78.44623615747129, 17.41294279347365 ], [ 78.446337060775392, 17.413111140466039 ], [ 78.446453979093263, 17.413268786568327 ], [ 78.446585786437623, 17.413414213562373 ], [ 78.446731213431661, 17.413546020906725 ], [ 78.446888859533956, 17.413662939224604 ], [ 78.447057206526338, 17.413763842528695 ], [ 78.447234633135267, 17.413847759065021 ], [ 78.447419430645482, 17.413913880671462 ], [ 78.447609819355961, 17.413961570560804 ], [ 78.447803965719331, 17.413990369453344 ], [ 78.448, 17.414 ], [ 78.448196034280656, 17.413990369453344 ], [ 78.448390180644026, 17.413961570560804 ], [ 78.448580569354505, 17.413913880671462 ], [ 78.44876536686472, 17.413847759065021 ], [ 78.448942793473648, 17.413763842528695 ], [ 78.44911114046603, 17.413662939224604 ], [ 78.449268786568325, 17.413546020906725 ], [ 78.449414213562363, 17.413414213562373 ], [ 78.449546020906723, 17.413268786568327 ], [ 78.449662939224595, 17.413111140466039 ], [ 78.449763842528697, 17.41294279347365 ], [ 78.449847759065023, 17.412765366864729 ], [ 78.44991388067146, 17.412580569354507 ], [ 78.449961570560802, 17.412390180644032 ], [ 78.449990369453332, 17.412196034280658 ], [ 78.45, 17.412 ] ] ] } },
{ "type": "Feature", "properties": { "name": "Rainbow Childrens Hospital", "nfz_type": "hospital", "severity": "hard" }, "geometry": { "type": "Polygon", "coordinates": [ [ [ 78.4425, 17.429 ], [ 78.44249277709001, 17.428852974289505 ], [ 78.442471177920609, 17.428707364516974 ], [ 78.442435410503606, 17.428564572984119 ], [ 78.442385819298764, 17.42842597485145 ], [ 78.44232288189653, 17.428292904894761 ], [ 78.44224720441845, 17.428166644650471 ], [ 78.442159515680046, 17.428048410073753 ], [ 78.442060660171776, 17.427939339828217 ], [ 78.441951589926248, 17.427840484319955 ], [ 78.44183335534953, 17.427752795581544 ], [ 78.441707095105244, 17.427677118103475 ], [ 78.441574025148554, 17.42761418070123 ], [ 78.44143542701589, 17.427564589496399 ], [ 78.441292635483023, 17.427528822079395 ], [ 78.441147025710492, 17.427507222909991 ], [ 78.441, 17.4275 ], [ 78.440852974289513, 17.427507222909991 ], [ 78.440707364516982, 17.427528822079395 ], [ 78.440564572984115, 17.427564589496399 ], [ 78.440425974851451, 17.42761418070123 ], [ 78.440292904894761, 17.427677118103475 ], [ 78.440166644650475, 17.427752795581544 ], [ 78.440048410073757, 17.427840484319955 ], [ 78.439939339828229, 17.427939339828217 ], [ 78.439840484319959, 17.428048410073753 ], [ 78.439752795581555, 17.428166644650471 ], [ 78.439677118103475, 17.428292904894761 ], [ 78.439614180701241, 17.42842597485145 ], [ 78.439564589496399, 17.428564572984119 ], [ 78.439528822079396, 17.428707364516974 ], [ 78.439507222909995, 17.428852974289505 ], [ 78.4395, 17.429 ], [ 78.439507222909995, 17.429147025710492 ], [ 78.439528822079396, 17.429292635483023 ], [ 78.439564589496399, 17.429435427015878 ], [ 78.439614180701241, 17.429574025148547 ], [ 78.439677118103475, 17.429707095105236 ], [ 78.439752795581555, 17.429833355349526 ], [ 78.439840484319959, 17.429951589926244 ], [ 78.439939339828229, 17.43006066017178 ], [ 78.440048410073757, 17.430159515680042 ], [ 78.440166644650475, 17.430247204418453 ], [ 78.440292904894761, 17.430322881896522 ], [ 78.440425974851451, 17.430385819298767 ], [ 78.440564572984115, 17.430435410503598 ], [ 78.440707364516982, 17.430471177920602 ], [ 78.440852974289513, 17.430492777090006 ], [ 78.441, 17.4305 ], [ 78.441147025710492, 17.430492777090006 ], [ 78.441292635483023, 17.430471177920602 ], [ 78.44143542701589, 17.430435410503598 ], [ 78.441574025148554, 17.430385819298767 ], [ 78.441707095105244, 17.430322881896522 ], [ 78.44183335534953, 17.430247204418453 ], [ 78.441951589926248, 17.430159515680042 ], [ 78.442060660171776, 17.43006066017178 ], [ 78.442159515680046, 17.429951589926244 ], [ 78.44224720441845, 17.429833355349526 ], [ 78.44232288189653, 17.429707095105236 ], [ 78.442385819298764, 17.429574025148547 ], [ 78.442435410503606, 17.429435427015878 ], [ 78.442471177920609, 17.429292635483023 ], [ 78.44249277709001, 17.429147025710492 ], [ 78.4425, 17.429 ] ] ] } },
{ "type": "Feature", "properties": { "name": "Mindspace Business Park", "nfz_type": "military", "severity": "hard" }, "geometry": { "type": "Polygon", "coordinates": [ [ [ 78.389, 17.442 ], [ 78.388980738906696, 17.441607931438682 ], [ 78.388923141121623, 17.441219638711935 ], [ 78.388827761342938, 17.440838861290981 ], [ 78.388695518130049, 17.44046926627054 ], [ 78.388527685057397, 17.440114413052697 ], [ 78.388325878449209, 17.439777719067923 ], [ 78.388092041813451, 17.439462426863347 ], [ 78.387828427124745, 17.439171572875253 ], [ 78.387537573136655, 17.438907958186551 ], [ 78.387222280932079, 17.43867412155079 ], [ 78.386885586947315, 17.438472314942608 ], [ 78.386530733729472, 17.438304481869956 ], [ 78.386161138709028, 17.438172238657071 ], [ 78.38578036128807, 17.438076858878386 ], [ 78.38539206856133, 17.438019261093313 ], [ 78.385, 17.438 ], [ 78.38460793143868, 17.438019261093313 ], [ 78.38421963871194, 17.438076858878386 ], [ 78.383838861290982, 17.438172238657071 ], [ 78.383469266270538, 17.438304481869956 ], [ 78.383114413052695, 17.438472314942608 ], [ 78.382777719067931, 17.43867412155079 ], [ 78.382462426863356, 17.438907958186551 ], [ 78.382171572875265, 17.439171572875253 ], [ 78.381907958186559, 17.439462426863347 ], [ 78.381674121550802, 17.439777719067923 ], [ 78.381472314942613, 17.440114413052697 ], [ 78.381304481869961, 17.44046926627054 ], [ 78.381172238657072, 17.440838861290981 ], [ 78.381076858878387, 17.441219638711935 ], [ 78.381019261093314, 17.441607931438682 ], [ 78.381, 17.442 ], [ 78.381019261093314, 17.442392068561318 ], [ 78.381076858878387, 17.442780361288065 ], [ 78.381172238657072, 17.443161138709019 ], [ 78.381304481869961, 17.44353073372946 ], [ 78.381472314942613, 17.443885586947303 ], [ 78.381674121550802, 17.444222280932077 ], [ 78.381907958186559, 17.444537573136653 ], [ 78.382171572875265, 17.444828427124747 ], [ 78.382462426863356, 17.445092041813449 ], [ 78.382777719067931, 17.445325878449211 ], [ 78.383114413052695, 17.445527685057392 ], [ 78.383469266270538, 17.445695518130044 ], [ 78.383838861290982, 17.44582776134293 ], [ 78.38421963871194, 17.445923141121614 ], [ 78.38460793143868, 17.445980738906687 ], [ 78.385, 17.446 ], [ 78.38539206856133, 17.445980738906687 ], [ 78.38578036128807, 17.445923141121614 ], [ 78.386161138709028, 17.44582776134293 ], [ 78.386530733729472, 17.445695518130044 ], [ 78.386885586947315, 17.445527685057392 ], [ 78.387222280932079, 17.445325878449211 ], [ 78.387537573136655, 17.445092041813449 ], [ 78.387828427124745, 17.444828427124747 ], [ 78.388092041813451, 17.444537573136653 ], [ 78.388325878449209, 17.444222280932077 ], [ 78.388527685057397, 17.443885586947303 ], [ 78.388695518130049, 17.44353073372946 ], [ 78.388827761342938, 17.443161138709019 ], [ 78.388923141121623, 17.442780361288065 ], [ 78.388980738906696, 17.442392068561318 ], [ 78.389, 17.442 ] ] ] } },
{ "type": "Feature", "properties": { "name": "Hyderabad Public School", "nfz_type": "school", "severity": "hard" }, "geometry": { "type": "Polygon", "coordinates": [ [ [ 78.462, 17.436 ], [ 78.461990369453332, 17.435803965719341 ], [ 78.461961570560803, 17.435609819355967 ], [ 78.46191388067146, 17.435419430645492 ], [ 78.461847759065023, 17.43523463313527 ], [ 78.461763842528697, 17.435057206526348 ], [ 78.461662939224595, 17.43488885953396 ], [ 78.461546020906724, 17.434731213431672 ], [ 78.461414213562364, 17.434585786437626 ], [ 78.461268786568326, 17.434453979093274 ], [ 78.461111140466031, 17.434337060775395 ], [ 78.460942793473649, 17.434236157471304 ], [ 78.46076536686472, 17.434152240934978 ], [ 78.460580569354505, 17.434086119328537 ], [ 78.460390180644026, 17.434038429439195 ], [ 78.460196034280656, 17.434009630546655 ], [ 78.46, 17.434 ], [ 78.459803965719331, 17.434009630546655 ], [ 78.459609819355961, 17.434038429439195 ], [ 78.459419430645482, 17.434086119328537 ], [ 78.459234633135267, 17.434152240934978 ], [ 78.459057206526339, 17.434236157471304 ], [ 78.458888859533957, 17.434337060775395 ], [ 78.458731213431662, 17.434453979093274 ], [ 78.458585786437624, 17.434585786437626 ], [ 78.458453979093264, 17.434731213431672 ], [ 78.458337060775392, 17.43488885953396 ], [ 78.458236157471291, 17.435057206526348 ], [ 78.458152240934965, 17.43523463313527 ], [ 78.458086119328527, 17.435419430645492 ], [ 78.458038429439185, 17.435609819355967 ], [ 78.458009630546655, 17.435803965719341 ], [ 78.458, 17.436 ], [ 78.458009630546655, 17.436196034280659 ], [ 78.458038429439185, 17.436390180644032 ], [ 78.458086119328527, 17.436580569354508 ], [ 78.458152240934965, 17.43676536686473 ], [ 78.458236157471291, 17.436942793473651 ], [ 78.458337060775392, 17.43711114046604 ], [ 78.458453979093264, 17.437268786568328 ], [ 78.458585786437624, 17.437414213562374 ], [ 78.458731213431662, 17.437546020906726 ], [ 78.458888859533957, 17.437662939224605 ], [ 78.459057206526339, 17.437763842528696 ], [ 78.459234633135267, 17.437847759065022 ], [ 78.459419430645482, 17.437913880671463 ], [ 78.459609819355961, 17.437961570560805 ], [ 78.459803965719331, 17.437990369453345 ], [ 78.46, 17.438 ], [ 78.460196034280656, 17.437990369453345 ], [ 78.460390180644026, 17.437961570560805 ], [ 78.460580569354505, 17.437913880671463 ], [ 78.46076536686472, 17.437847759065022 ], [ 78.460942793473649, 17.437763842528696 ], [ 78.461111140466031, 17.437662939224605 ], [ 78.461268786568326, 17.437546020906726 ], [ 78.461414213562364, 17.437414213562374 ], [ 78.461546020906724, 17.437268786568328 ], [ 78.461662939224595, 17.43711114046604 ], [ 78.461763842528697, 17.436942793473651 ], [ 78.461847759065023, 17.43676536686473 ], [ 78.46191388067146, 17.436580569354508 ], [ 78.461961570560803, 17.436390180644032 ], [ 78.461990369453332, 17.436196034280659 ], [ 78.462, 17.436 ] ] ] } },
{ "type": "Feature", "properties": { "name": "JNTU Hyderabad (Restricted)", "nfz_type": "college", "severity": "hard" }, "geometry": { "type": "Polygon", "coordinates": [ [ [ 78.394, 17.493 ], [ 78.39398555418002, 17.492705948579008 ], [ 78.393942355841219, 17.49241472903395 ], [ 78.393870821007198, 17.492129145968235 ], [ 78.393771638597542, 17.491851949702902 ], [ 78.393645763793046, 17.49158580978952 ], [ 78.393494408836915, 17.49133328930094 ], [ 78.393319031360093, 17.491096820147508 ], [ 78.393121320343568, 17.49087867965644 ], [ 78.392903179852496, 17.490680968639911 ], [ 78.392666710699061, 17.490505591163092 ], [ 78.392414190210488, 17.490354236206954 ], [ 78.392148050297095, 17.490228361402465 ], [ 78.391870854031765, 17.490129178992802 ], [ 78.391585270966047, 17.490057644158789 ], [ 78.391294051420999, 17.49001444581998 ], [ 78.391, 17.49 ], [ 78.390705948579011, 17.49001444581998 ], [ 78.390414729033964, 17.490057644158789 ], [ 78.390129145968245, 17.490129178992802 ], [ 78.389851949702916, 17.490228361402465 ], [ 78.389585809789523, 17.490354236206954 ], [ 78.38933328930095, 17.490505591163092 ], [ 78.389096820147515, 17.490680968639911 ], [ 78.388878679656443, 17.49087867965644 ], [ 78.388680968639918, 17.491096820147508 ], [ 78.388505591163096, 17.49133328930094 ], [ 78.388354236206965, 17.49158580978952 ], [ 78.388228361402469, 17.491851949702902 ], [ 78.388129178992813, 17.492129145968235 ], [ 78.388057644158792, 17.49241472903395 ], [ 78.388014445819991, 17.492705948579008 ], [ 78.388, 17.493 ], [ 78.388014445819991, 17.493294051420989 ], [ 78.388057644158792, 17.493585270966047 ], [ 78.388129178992813, 17.493870854031762 ], [ 78.388228361402469, 17.494148050297095 ], [ 78.388354236206965, 17.494414190210477 ], [ 78.388505591163096, 17.494666710699057 ], [ 78.388680968639918, 17.494903179852489 ], [ 78.388878679656443, 17.495121320343557 ], [ 78.389096820147515, 17.495319031360086 ], [ 78.38933328930095, 17.495494408836905 ], [ 78.389585809789523, 17.495645763793043 ], [ 78.389851949702916, 17.495771638597532 ], [ 78.390129145968245, 17.495870821007195 ], [ 78.390414729033964, 17.495942355841208 ], [ 78.390705948579011, 17.495985554180017 ], [ 78.391, 17.496 ], [ 78.391294051420999, 17.495985554180017 ], [ 78.391585270966047, 17.495942355841208 ], [ 78.391870854031765, 17.495870821007195 ], [ 78.392148050297095, 17.495771638597532 ], [ 78.392414190210488, 17.495645763793043 ], [ 78.392666710699061, 17.495494408836905 ], [ 78.392903179852496, 17.495319031360086 ], [ 78.393121320343568, 17.495121320343557 ], [ 78.393319031360093, 17.494903179852489 ], [ 78.393494408836915, 17.494666710699057 ], [ 78.393645763793046, 17.494414190210477 ], [ 78.393771638597542, 17.494148050297095 ], [ 78.393870821007198, 17.493870854031762 ], [ 78.393942355841219, 17.493585270966047 ], [ 78.39398555418002, 17.493294051420989 ], [ 78.394, 17.493 ] ] ] } },
{ "type": "Feature", "properties": { "name": "Rohini Hospital Hanamkonda", "nfz_type": "hospital", "severity": "hard" }, "geometry": { "type": "Polygon", "coordinates": [ [ [ 79.5485, 17.9955 ], [ 79.548490369453333, 17.995303965719341 ], [ 79.548461570560804, 17.995109819355967 ], [ 79.548413880671461, 17.994919430645492 ], [ 79.548347759065024, 17.99473463313527 ], [ 79.548263842528698, 17.994557206526348 ], [ 79.548162939224596, 17.994388859533959 ], [ 79.548046020906725, 17.994231213431672 ], [ 79.547914213562365, 17.994085786437626 ], [ 79.547768786568327, 17.993953979093273 ], [ 79.547611140466032, 17.993837060775395 ], [ 79.54744279347365, 17.993736157471304 ], [ 79.547265366864721, 17.993652240934978 ], [ 79.547080569354506, 17.993586119328537 ], [ 79.546890180644027, 17.993538429439194 ], [ 79.546696034280657, 17.993509630546654 ], [ 79.5465, 17.9935 ], [ 79.546303965719332, 17.993509630546654 ], [ 79.546109819355962, 17.993538429439194 ], [ 79.545919430645483, 17.993586119328537 ], [ 79.545734633135268, 17.993652240934978 ], [ 79.54555720652634, 17.993736157471304 ], [ 79.545388859533958, 17.993837060775395 ], [ 79.545231213431663, 17.993953979093273 ], [ 79.545085786437625, 17.994085786437626 ], [ 79.544953979093265, 17.994231213431672 ], [ 79.544837060775393, 17.994388859533959 ], [ 79.544736157471291, 17.994557206526348 ], [ 79.544652240934965, 17.99473463313527 ], [ 79.544586119328528, 17.994919430645492 ], [ 79.544538429439186, 17.995109819355967 ], [ 79.544509630546656, 17.995303965719341 ], [ 79.5445, 17.9955 ], [ 79.544509630546656, 17.995696034280659 ], [ 79.544538429439186, 17.995890180644032 ], [ 79.544586119328528, 17.996080569354508 ], [ 79.544652240934965, 17.99626536686473 ], [ 79.544736157471291, 17.996442793473651 ], [ 79.544837060775393, 17.99661114046604 ], [ 79.544953979093265, 17.996768786568328 ], [ 79.545085786437625, 17.996914213562373 ], [ 79.545231213431663, 17.997046020906726 ], [ 79.545388859533958, 17.997162939224605 ], [ 79.54555720652634, 17.997263842528696 ], [ 79.545734633135268, 17.997347759065022 ], [ 79.545919430645483, 17.997413880671463 ], [ 79.546109819355962, 17.997461570560805 ], [ 79.546303965719332, 17.997490369453345 ], [ 79.5465, 17.9975 ], [ 79.546696034280657, 17.997490369453345 ], [ 79.546890180644027, 17.997461570560805 ], [ 79.547080569354506, 17.997413880671463 ], [ 79.547265366864721, 17.997347759065022 ], [ 79.54744279347365, 17.997263842528696 ], [ 79.547611140466032, 17.997162939224605 ], [ 79.547768786568327, 17.997046020906726 ], [ 79.547914213562365, 17.996914213562373 ], [ 79.548046020906725, 17.996768786568328 ], [ 79.548162939224596, 17.99661114046604 ], [ 79.548263842528698, 17.996442793473651 ], [ 79.548347759065024, 17.99626536686473 ], [ 79.548413880671461, 17.996080569354508 ], [ 79.548461570560804, 17.995890180644032 ], [ 79.548490369453333, 17.995696034280659 ], [ 79.5485, 17.9955 ] ] ] } },
{ "type": "Feature", "properties": { "name": "Warangal Public Garden", "nfz_type": "college", "severity": "hard" }, "geometry": { "type": "Polygon", "coordinates": [ [ [ 79.563, 18.005 ], [ 79.562985554180017, 18.004705948579009 ], [ 79.562942355841216, 18.00441472903395 ], [ 79.562870821007195, 18.004129145968236 ], [ 79.562771638597539, 18.003851949702902 ], [ 79.562645763793043, 18.00358580978952 ], [ 79.562494408836912, 18.00333328930094 ], [ 79.56231903136009, 18.003096820147508 ], [ 79.562121320343564, 18.00287867965644 ], [ 79.561903179852493, 18.002680968639911 ], [ 79.561666710699058, 18.002505591163093 ], [ 79.561414190210485, 18.002354236206955 ], [ 79.561148050297092, 18.002228361402466 ], [ 79.560870854031762, 18.002129178992803 ], [ 79.560585270966044, 18.002057644158789 ], [ 79.560294051420996, 18.002014445819981 ], [ 79.56, 18.002 ], [ 79.559705948579008, 18.002014445819981 ], [ 79.559414729033961, 18.002057644158789 ], [ 79.559129145968242, 18.002129178992803 ], [ 79.558851949702913, 18.002228361402466 ], [ 79.55858580978952, 18.002354236206955 ], [ 79.558333289300947, 18.002505591163093 ], [ 79.558096820147512, 18.002680968639911 ], [ 79.55787867965644, 18.00287867965644 ], [ 79.557680968639914, 18.003096820147508 ], [ 79.557505591163093, 18.00333328930094 ], [ 79.557354236206962, 18.00358580978952 ], [ 79.557228361402466, 18.003851949702902 ], [ 79.55712917899281, 18.004129145968236 ], [ 79.557057644158789, 18.00441472903395 ], [ 79.557014445819988, 18.004705948579009 ], [ 79.557, 18.005 ], [ 79.557014445819988, 18.005294051420989 ], [ 79.557057644158789, 18.005585270966048 ], [ 79.55712917899281, 18.005870854031762 ], [ 79.557228361402466, 18.006148050297096 ], [ 79.557354236206962, 18.006414190210478 ], [ 79.557505591163093, 18.006666710699058 ], [ 79.557680968639914, 18.00690317985249 ], [ 79.55787867965644, 18.007121320343558 ], [ 79.558096820147512, 18.007319031360087 ], [ 79.558333289300947, 18.007494408836905 ], [ 79.55858580978952, 18.007645763793043 ], [ 79.558851949702913, 18.007771638597532 ], [ 79.559129145968242, 18.007870821007195 ], [ 79.559414729033961, 18.007942355841209 ], [ 79.559705948579008, 18.007985554180017 ], [ 79.56, 18.008 ], [ 79.560294051420996, 18.007985554180017 ], [ 79.560585270966044, 18.007942355841209 ], [ 79.560870854031762, 18.007870821007195 ], [ 79.561148050297092, 18.007771638597532 ], [ 79.561414190210485, 18.007645763793043 ], [ 79.561666710699058, 18.007494408836905 ], [ 79.561903179852493, 18.007319031360087 ], [ 79.562121320343564, 18.007121320343558 ], [ 79.56231903136009, 18.00690317985249 ], [ 79.562494408836912, 18.006666710699058 ], [ 79.562645763793043, 18.006414190210478 ], [ 79.562771638597539, 18.006148050297096 ], [ 79.562870821007195, 18.005870854031762 ], [ 79.562942355841216, 18.005585270966048 ], [ 79.562985554180017, 18.005294051420989 ], [ 79.563, 18.005 ] ] ] } },
{ "type": "Feature", "properties": { "name": "KITS Warangal (Restricted)", "nfz_type": "college", "severity": "hard" }, "geometry": { "type": "Polygon", "coordinates": [ [ [ 79.544, 18.03 ], [ 79.543980738906697, 18.029607931438683 ], [ 79.543923141121624, 18.029219638711936 ], [ 79.543827761342939, 18.028838861290982 ], [ 79.54369551813005, 18.028469266270541 ], [ 79.543527685057398, 18.028114413052698 ], [ 79.54332587844921, 18.027777719067924 ], [ 79.543092041813452, 18.027462426863348 ], [ 79.542828427124746, 18.027171572875254 ], [ 79.542537573136656, 18.026907958186552 ], [ 79.54222228093208, 18.026674121550791 ], [ 79.541885586947316, 18.026472314942609 ], [ 79.541530733729473, 18.026304481869957 ], [ 79.541161138709029, 18.026172238657072 ], [ 79.540780361288071, 18.026076858878387 ], [ 79.540392068561331, 18.026019261093314 ], [ 79.54, 18.026 ], [ 79.539607931438681, 18.026019261093314 ], [ 79.539219638711941, 18.026076858878387 ], [ 79.538838861290984, 18.026172238657072 ], [ 79.538469266270539, 18.026304481869957 ], [ 79.538114413052696, 18.026472314942609 ], [ 79.537777719067932, 18.026674121550791 ], [ 79.537462426863357, 18.026907958186552 ], [ 79.537171572875266, 18.027171572875254 ], [ 79.536907958186561, 18.027462426863348 ], [ 79.536674121550803, 18.027777719067924 ], [ 79.536472314942614, 18.028114413052698 ], [ 79.536304481869962, 18.028469266270541 ], [ 79.536172238657073, 18.028838861290982 ], [ 79.536076858878388, 18.029219638711936 ], [ 79.536019261093315, 18.029607931438683 ], [ 79.536, 18.03 ], [ 79.536019261093315, 18.030392068561319 ], [ 79.536076858878388, 18.030780361288066 ], [ 79.536172238657073, 18.03116113870902 ], [ 79.536304481869962, 18.031530733729461 ], [ 79.536472314942614, 18.031885586947304 ], [ 79.536674121550803, 18.032222280932078 ], [ 79.536907958186561, 18.032537573136654 ], [ 79.537171572875266, 18.032828427124748 ], [ 79.537462426863357, 18.03309204181345 ], [ 79.537777719067932, 18.033325878449212 ], [ 79.538114413052696, 18.033527685057393 ], [ 79.538469266270539, 18.033695518130045 ], [ 79.538838861290984, 18.033827761342931 ], [ 79.539219638711941, 18.033923141121615 ], [ 79.539607931438681, 18.033980738906688 ], [ 79.54, 18.034 ], [ 79.540392068561331, 18.033980738906688 ], [ 79.540780361288071, 18.033923141121615 ], [ 79.541161138709029, 18.033827761342931 ], [ 79.541530733729473, 18.033695518130045 ], [ 79.541885586947316, 18.033527685057393 ], [ 79.54222228093208, 18.033325878449212 ], [ 79.542537573136656, 18.03309204181345 ], [ 79.542828427124746, 18.032828427124748 ], [ 79.543092041813452, 18.032537573136654 ], [ 79.54332587844921, 18.032222280932078 ], [ 79.543527685057398, 18.031885586947304 ], [ 79.54369551813005, 18.031530733729461 ], [ 79.543827761342939, 18.03116113870902 ], [ 79.543923141121624, 18.030780361288066 ], [ 79.543980738906697, 18.030392068561319 ], [ 79.544, 18.03 ] ] ] } },
{ "type": "Feature", "properties": { "name": "MGM Hospital Warangal", "nfz_type": "hospital", "severity": "hard" }, "geometry": { "type": "Polygon", "coordinates": [ [ [ 79.583, 17.985 ], [ 79.582985554180013, 17.984705948579009 ], [ 79.582942355841212, 17.984414729033951 ], [ 79.582870821007191, 17.984129145968236 ], [ 79.582771638597535, 17.983851949702903 ], [ 79.582645763793039, 17.98358580978952 ], [ 79.582494408836908, 17.983333289300941 ], [ 79.582319031360086, 17.983096820147509 ], [ 79.58212132034356, 17.982878679656441 ], [ 79.581903179852489, 17.982680968639912 ], [ 79.581666710699054, 17.982505591163093 ], [ 79.581414190210481, 17.982354236206955 ], [ 79.581148050297088, 17.982228361402466 ], [ 79.580870854031758, 17.982129178992803 ], [ 79.58058527096604, 17.98205764415879 ], [ 79.580294051420992, 17.982014445819981 ], [ 79.58, 17.982 ], [ 79.579705948579004, 17.982014445819981 ], [ 79.579414729033957, 17.98205764415879 ], [ 79.579129145968238, 17.982129178992803 ], [ 79.578851949702909, 17.982228361402466 ], [ 79.578585809789516, 17.982354236206955 ], [ 79.578333289300943, 17.982505591163093 ], [ 79.578096820147508, 17.982680968639912 ], [ 79.577878679656436, 17.982878679656441 ], [ 79.57768096863991, 17.983096820147509 ], [ 79.577505591163089, 17.983333289300941 ], [ 79.577354236206958, 17.98358580978952 ], [ 79.577228361402462, 17.983851949702903 ], [ 79.577129178992806, 17.984129145968236 ], [ 79.577057644158785, 17.984414729033951 ], [ 79.577014445819984, 17.984705948579009 ], [ 79.577, 17.985 ], [ 79.577014445819984, 17.98529405142099 ], [ 79.577057644158785, 17.985585270966048 ], [ 79.577129178992806, 17.985870854031763 ], [ 79.577228361402462, 17.986148050297096 ], [ 79.577354236206958, 17.986414190210478 ], [ 79.577505591163089, 17.986666710699058 ], [ 79.57768096863991, 17.98690317985249 ], [ 79.577878679656436, 17.987121320343558 ], [ 79.578096820147508, 17.987319031360087 ], [ 79.578333289300943, 17.987494408836906 ], [ 79.578585809789516, 17.987645763793044 ], [ 79.578851949702909, 17.987771638597533 ], [ 79.579129145968238, 17.987870821007196 ], [ 79.579414729033957, 17.987942355841209 ], [ 79.579705948579004, 17.987985554180018 ], [ 79.58, 17.988 ], [ 79.580294051420992, 17.987985554180018 ], [ 79.58058527096604, 17.987942355841209 ], [ 79.580870854031758, 17.987870821007196 ], [ 79.581148050297088, 17.987771638597533 ], [ 79.581414190210481, 17.987645763793044 ], [ 79.581666710699054, 17.987494408836906 ], [ 79.581903179852489, 17.987319031360087 ], [ 79.58212132034356, 17.987121320343558 ], [ 79.582319031360086, 17.98690317985249 ], [ 79.582494408836908, 17.986666710699058 ], [ 79.582645763793039, 17.986414190210478 ], [ 79.582771638597535, 17.986148050297096 ], [ 79.582870821007191, 17.985870854031763 ], [ 79.582942355841212, 17.985585270966048 ], [ 79.582985554180013, 17.98529405142099 ], [ 79.583, 17.985 ] ] ] } },
{ "type": "Feature", "properties": { "name": "Regional Science Center", "nfz_type": "school", "severity": "hard" }, "geometry": { "type": "Polygon", "coordinates": [ [ [ 79.552, 18.02 ], [ 79.551990369453335, 18.019803965719341 ], [ 79.551961570560806, 18.019609819355967 ], [ 79.551913880671464, 18.019419430645492 ], [ 79.551847759065026, 18.01923463313527 ], [ 79.5517638425287, 18.019057206526348 ], [ 79.551662939224599, 18.018888859533959 ], [ 79.551546020906727, 18.018731213431671 ], [ 79.551414213562367, 18.018585786437626 ], [ 79.551268786568329, 18.018453979093273 ], [ 79.551111140466034, 18.018337060775394 ], [ 79.550942793473652, 18.018236157471303 ], [ 79.550765366864724, 18.018152240934977 ], [ 79.550580569354508, 18.018086119328537 ], [ 79.55039018064403, 18.018038429439194 ], [ 79.55019603428066, 18.018009630546654 ], [ 79.55, 18.018 ], [ 79.549803965719335, 18.018009630546654 ], [ 79.549609819355965, 18.018038429439194 ], [ 79.549419430645486, 18.018086119328537 ], [ 79.549234633135271, 18.018152240934977 ], [ 79.549057206526342, 18.018236157471303 ], [ 79.54888885953396, 18.018337060775394 ], [ 79.548731213431665, 18.018453979093273 ], [ 79.548585786437627, 18.018585786437626 ], [ 79.548453979093267, 18.018731213431671 ], [ 79.548337060775395, 18.018888859533959 ], [ 79.548236157471294, 18.019057206526348 ], [ 79.548152240934968, 18.01923463313527 ], [ 79.548086119328531, 18.019419430645492 ], [ 79.548038429439188, 18.019609819355967 ], [ 79.548009630546659, 18.019803965719341 ], [ 79.548, 18.02 ], [ 79.548009630546659, 18.020196034280659 ], [ 79.548038429439188, 18.020390180644032 ], [ 79.548086119328531, 18.020580569354507 ], [ 79.548152240934968, 18.02076536686473 ], [ 79.548236157471294, 18.020942793473651 ], [ 79.548337060775395, 18.02111114046604 ], [ 79.548453979093267, 18.021268786568328 ], [ 79.548585786437627, 18.021414213562373 ], [ 79.548731213431665, 18.021546020906726 ], [ 79.54888885953396, 18.021662939224605 ], [ 79.549057206526342, 18.021763842528696 ], [ 79.549234633135271, 18.021847759065022 ], [ 79.549419430645486, 18.021913880671462 ], [ 79.549609819355965, 18.021961570560805 ], [ 79.549803965719335, 18.021990369453345 ], [ 79.55, 18.022 ], [ 79.55019603428066, 18.021990369453345 ], [ 79.55039018064403, 18.021961570560805 ], [ 79.550580569354508, 18.021913880671462 ], [ 79.550765366864724, 18.021847759065022 ], [ 79.550942793473652, 18.021763842528696 ], [ 79.551111140466034, 18.021662939224605 ], [ 79.551268786568329, 18.021546020906726 ], [ 79.551414213562367, 18.021414213562373 ], [ 79.551546020906727, 18.021268786568328 ], [ 79.551662939224599, 18.02111114046604 ], [ 79.5517638425287, 18.020942793473651 ], [ 79.551847759065026, 18.02076536686473 ], [ 79.551913880671464, 18.020580569354507 ], [ 79.551961570560806, 18.020390180644032 ], [ 79.551990369453335, 18.020196034280659 ], [ 79.552, 18.02 ] ] ] } },
{ "type": "Feature", "properties": { "name": "NIT Warangal Campus", "nfz_type": "college", "severity": "hard" }, "geometry": { "type": "Polygon", "coordinates": [ [ [ 79.536, 17.983 ], [ 79.535975923633373, 17.982509914298351 ], [ 79.535903926402028, 17.982024548389919 ], [ 79.535784701678665, 17.981548576613729 ], [ 79.535619397662558, 17.981086582838174 ], [ 79.53540960632175, 17.98064301631587 ], [ 79.535157348061517, 17.980222148834901 ], [ 79.534865052266824, 17.979828033579182 ], [ 79.534535533905938, 17.979464466094068 ], [ 79.534171966420828, 17.979134947733186 ], [ 79.533777851165098, 17.978842651938489 ], [ 79.533356983684129, 17.97859039367826 ], [ 79.532913417161836, 17.978380602337445 ], [ 79.532451423386277, 17.978215298321338 ], [ 79.53197545161008, 17.978096073597985 ], [ 79.531490085701648, 17.978024076366641 ], [ 79.531, 17.978 ], [ 79.530509914298364, 17.978024076366641 ], [ 79.530024548389932, 17.978096073597985 ], [ 79.529548576613735, 17.978215298321338 ], [ 79.529086582838175, 17.978380602337445 ], [ 79.528643016315883, 17.97859039367826 ], [ 79.528222148834914, 17.978842651938489 ], [ 79.527828033579183, 17.979134947733186 ], [ 79.527464466094074, 17.979464466094068 ], [ 79.527134947733188, 17.979828033579182 ], [ 79.526842651938495, 17.980222148834901 ], [ 79.526590393678262, 17.98064301631587 ], [ 79.526380602337454, 17.981086582838174 ], [ 79.526215298321347, 17.981548576613729 ], [ 79.526096073597984, 17.982024548389919 ], [ 79.526024076366639, 17.982509914298351 ], [ 79.526, 17.983 ], [ 79.526024076366639, 17.98349008570165 ], [ 79.526096073597984, 17.983975451610082 ], [ 79.526215298321347, 17.984451423386272 ], [ 79.526380602337454, 17.984913417161827 ], [ 79.526590393678262, 17.985356983684131 ], [ 79.526842651938495, 17.9857778511651 ], [ 79.527134947733188, 17.98617196642082 ], [ 79.527464466094074, 17.986535533905933 ], [ 79.527828033579183, 17.986865052266815 ], [ 79.528222148834914, 17.987157348061512 ], [ 79.528643016315883, 17.987409606321741 ], [ 79.529086582838175, 17.987619397662556 ], [ 79.529548576613735, 17.987784701678663 ], [ 79.530024548389932, 17.987903926402016 ], [ 79.530509914298364, 17.987975923633361 ], [ 79.531, 17.988 ], [ 79.531490085701648, 17.987975923633361 ], [ 79.53197545161008, 17.987903926402016 ], [ 79.532451423386277, 17.987784701678663 ], [ 79.532913417161836, 17.987619397662556 ], [ 79.533356983684129, 17.987409606321741 ], [ 79.533777851165098, 17.987157348061512 ], [ 79.534171966420828, 17.986865052266815 ], [ 79.534535533905938, 17.986535533905933 ], [ 79.534865052266824, 17.98617196642082 ], [ 79.535157348061517, 17.9857778511651 ], [ 79.53540960632175, 17.985356983684131 ], [ 79.535619397662558, 17.984913417161827 ], [ 79.535784701678665, 17.984451423386272 ], [ 79.535903926402028, 17.983975451610082 ], [ 79.535975923633373, 17.98349008570165 ], [ 79.536, 17.983 ] ] ] } }
]
}
